MOLNIYA 2-9             
1 07276U 74026A   21341.64036221  .00000033  00000+0  00000+0 0  9990
2 07276  64.2503 254.7146 6579717 283.5708  15.5641  2.45095595244510
MOLNIYA 2-10            
1 07376U 74056A   21339.51577108  .00001089  00000+0  00000+0 0  9993
2 07376  63.8740 114.6672 6684548 288.3696  13.3544  2.01167990346483
MOLNIYA 1-S             
1 07392U 74060A   21342.34751689 -.00000340  00000+0  00000+0 0  9999
2 07392   5.5951 285.8563 0010158 204.9133 178.6870  1.00287452117591
MOLNIYA 1-29            
1 07780U 75036A   21340.77079705  .00000153  00000+0 -88373-2 0  9995
2 07780  63.3385 237.7273 7052221 289.5130  11.0525  2.00589876341759
MOLNIYA 2-14            
1 08195U 75081A   21341.67359305 -.00000532  00000+0  00000+0 0  9992
2 08195  63.3705 209.2880 6933330 293.8220  10.6725  2.02105632339019
MOLNIYA 1-32            
1 08601U 76006A   21341.05433237  .00001095  00000+0  25824-2 0  9999
2 08601  63.3062 325.5203 7354104 283.0678  10.5432  1.99950800335158
MOLNIYA 1-36            
1 09880U 77021A   21341.90541977 -.00000349  00000+0  13487-2 0  9996
2 09880  63.1627 295.4679 7316685 289.1068   9.5297  2.00338509225522
MOLNIYA 3-8             
1 10455U 77105A   21341.15227084 -.00000620  00000+0 -93191-4 0  9991
2 10455  62.9542  27.9890 7396836 281.1375  10.7418  2.00434894323282
MOLNIYA 1-40            
1 10925U 78055A   21341.27710872 -.00000644  00000+0  00000+0 0  9990
2 10925  62.9466  75.5483 7213744 279.9425  12.3041  2.00587966318826
MOLNIYA 3-10            
1 11057U 78095A   21341.32224720 -.00000136  00000+0 -56834-3 0  9996
2 11057  62.8964 110.7420 5815182 308.0208  12.4428  4.09831641375852
MOLNIYA 3-13            
1 11896U 80063A   21342.03744394  .00000027  00000+0  00000+0 0  9995
2 11896  62.6183 161.4355 7044083 276.1197  14.5610  2.00578457303301
MOLNIYA 1-49            
1 12156U 81009A   21341.66585902 -.00000535  00000+0 -15485-2 0  9994
2 12156  61.7203 194.1135 7193036 259.5813  19.4485  2.05711833217575
MOLNIYA 1-52            
1 13012U 81123A   21340.99846597  .00000982  00000+0  11714-1 0  9992
2 13012  62.3366 307.7920 7294375 252.2280  22.0158  2.00843432292716
MOLNIYA 1-53            
1 13070U 82015A   21341.84923939  .00001517  00000+0  18781-1 0  9994
2 13070  62.4974 239.0296 7175381 281.8313  12.1757  2.00461194291400
MOLNIYA 3-20            
1 13875U 83015A   21341.12514170 -.00001006  00000+0 -41546-3 0  9994
2 13875  63.1630  23.0605 7378620 256.6953  18.8061  2.00839415219895
MOLNIYA 1-56            
1 13890U 83019A   21340.58657998 -.00001693  00000+0 -49370-4 0  9996
2 13890  63.0820  48.8453 7402106 262.6162  16.1769  1.99913477282742
MOLNIYA 1-62            
1 15214U 84089A   21339.26796028  .00003452  00000+0  51205-3 0  9999
2 15214  62.7787  49.9983 7534904 269.3236  12.8839  1.98108421240402
MOLNIYA 1-63            
1 15429U 84124A   21341.12186927  .00000078  00000+0  00000+0 0  9990
2 15429  63.6419 185.7856 6556871 261.4614  33.3435  2.00333852270909
MOLNIYA 3-24            
1 15738U 85040A   21341.47711245  .00000043  00000+0  00000+0 0  9998
2 15738  63.7724 117.4288 6706912 247.9114  31.5363  2.55626782298963
MOLNIYA 3-27            
1 16393U 85117A   21336.42677062  .00000073  00000+0  00000+0 0  9991
2 16393  64.5346 106.2756 6857712 250.2956  28.0762  2.12397236270014
MOLNIYA 1-69            
1 17078U 86089A   21340.73215992  .00000877  00000+0  00000+0 0  9992
2 17078  64.0648 204.6775 6597509 260.5561  24.8851  2.00964510256952
MOLNIYA 3-31            
1 17328U 87008A   21340.50572592 -.00000146  00000+0  00000+0 0  9999
2 17328  63.7690 150.6315 6886584 255.2930  24.7142  2.00632391251998
MOLNIYA 1-71            
1 18946U 88017A   21341.01988278  .00000333  00000+0  00000+0 0  9993
2 18946  63.4576 146.9314 7004719 257.2784  22.4094  2.00562049247194
MOLNIYA 1-75            
1 19807U 89014A   21341.07869580  .00001244  00000+0  00000+0 0  9990
2 19807  64.1488 306.5216 6954271 268.1617  18.0403  2.00327010240148
MOLNIYA 1-80            
1 21118U 91012A   21340.19524266  .00000139  00000+0  00000+0 0  9992
2 21118  65.1021 354.4484 6849309 280.2005  14.5595  2.05245331227014
MOLNIYA 3-40            
1 21196U 91022A   21340.73201533  .00001064  00000+0  00000+0 0  9996
2 21196  65.0962 347.8326 6882493 276.9039  15.3777  2.03001582225772
MOLNIYA 1-81            
1 21426U 91043A   21340.62393308 -.00000203  00000+0  00000+0 0  9990
2 21426  64.2056   8.7346 7115314 268.3174  16.5204  2.00610492223291
MOLNIYA 3-41            
1 21706U 91065A   21341.09123950 -.00000764  00000+0  00000+0 0  9993
2 21706  64.1109 186.3402 6740244 258.1664  24.6868  2.04361697222932
MOLNIYA 3-42            
1 22178U 92067A   21341.45002384  .00000140  00000+0  00000+0 0  9994
2 22178  64.6837 236.4947 6495103 270.1883  21.2364  2.20434004 75827
MOLNIYA 1-86            
1 22671U 93035A   21342.11120030  .00000022  00000+0  13099-3 0  9996
2 22671  63.1821 347.6125 4826552   4.3210 358.7035  5.62631430341482
MOLNIYA 1-87            
1 22949U 93079A   21340.81694716 -.00000959  00000+0  00000+0 0  9998
2 22949  63.6809 113.9279 6815309 285.6615  13.3081  2.02867722 71029
MOLNIYA 1-88            
1 23420U 94081A   21340.96605836  .00000047  00000+0  00000+0 0  9995
2 23420  64.2701 238.6502 5873890 286.4764  19.4223  3.34495955107260
MOLNIYA 3-47            
1 23642U 95042A   21342.13984385  .00000205  00000+0  00000+0 0  9995
2 23642  63.7013  96.2698 6871251 285.7177  12.9561  2.01923305193244
MOLNIYA 1-90            
1 24960U 97054A   21341.68472408  .00000119  00000+0  33907-2 0  9990
2 24960  63.6273 206.6235 6192454 299.9616  12.9718  3.18686525201899
MOLNIYA 1-91            
1 25485U 98054A   21341.35500750  .00000198  00000+0  22925-2 0  9995
2 25485  62.9728 180.2395 6828155 291.8213 329.2368  2.36442444173837
MOLNIYA 3-50            
1 25847U 99036A   21341.10203164 -.00000402  00000+0  13459-3 0  9992
2 25847  62.9775   4.9815 7437420 280.7605  10.5392  2.00633439164254
